STARLINK-31956          
1 59930U 24106J   26067.18859722  .00004487  00000+0  17240-3 0  9991
2 59930  43.0006 340.9670 0000902 260.5874  99.4876 15.27591276100293
LUR-1                   
1 60506U 24149AQ  26068.79566301  .00009121  00000+0  32985-3 0  9998
2 60506  97.3790 148.4255 0002777 309.1571  50.9421 15.28658648 86785
